CCSDS_OMM_VERS = 2.0
CREATION_DATE  = 
ORIGINATOR     = 

OBJECT_NAME    = STARLINK-36730
OBJECT_ID      = 2026-034AA
CENTER_NAME    = EARTH
REF_FRAME      = TEME
TIME_SYSTEM    = UTC
MEAN_ELEMENT_THEORY = SGP/SGP4

EPOCH          = 2026-03-02T22:00:01.999584
MEAN_MOTION    = 15.80851315
ECCENTRICITY   = .00010726
INCLINATION    = 53.1547
RA_OF_ASC_NODE = 245.0882
ARG_OF_PERICENTER = 79.7660
MEAN_ANOMALY   = 95.5583

EPHEMERIS_TYPE = 0
CLASSIFICATION_TYPE = U
NORAD_CAT_ID   = 67874
ELEMENT_SET_NO = 999
REV_AT_EPOCH   = 277
BSTAR          = .20840185E-3
MEAN_MOTION_DOT = .40585E-3
MEAN_MOTION_DDOT = 0

CCSDS_OMM_VERS = 2.0
CREATION_DATE  = 
ORIGINATOR     = 

OBJECT_NAME    = STARLINK-36727
OBJECT_ID      = 2026-034AB
CENTER_NAME    = EARTH
REF_FRAME      = TEME
TIME_SYSTEM    = UTC
MEAN_ELEMENT_THEORY = SGP/SGP4

EPOCH          = 2026-03-02T22:00:01.999584
MEAN_MOTION    = 15.80858655
ECCENTRICITY   = .00006779
INCLINATION    = 53.1531
RA_OF_ASC_NODE = 245.0792
ARG_OF_PERICENTER = 82.3681
MEAN_ANOMALY   = 97.2247

EPHEMERIS_TYPE = 0
CLASSIFICATION_TYPE = U
NORAD_CAT_ID   = 67875
ELEMENT_SET_NO = 999
REV_AT_EPOCH   = 277
BSTAR          = .13964888E-3
MEAN_MOTION_DOT = .26931E-3
MEAN_MOTION_DDOT = 0

CCSDS_OMM_VERS = 2.0
CREATION_DATE  = 
ORIGINATOR     = 

OBJECT_NAME    = STARLINK-36743
OBJECT_ID      = 2026-034AC
CENTER_NAME    = EARTH
REF_FRAME      = TEME
TIME_SYSTEM    = UTC
MEAN_ELEMENT_THEORY = SGP/SGP4

EPOCH          = 2026-03-02T22:00:01.999584
MEAN_MOTION    = 15.80856517
ECCENTRICITY   = .00011544
INCLINATION    = 53.1530
RA_OF_ASC_NODE = 245.0700
ARG_OF_PERICENTER = 90.2289
MEAN_ANOMALY   = 93.6354

EPHEMERIS_TYPE = 0
CLASSIFICATION_TYPE = U
NORAD_CAT_ID   = 67876
ELEMENT_SET_NO = 999
REV_AT_EPOCH   = 277
BSTAR          = .133351E-3
MEAN_MOTION_DOT = .25679E-3
MEAN_MOTION_DDOT = 0

CCSDS_OMM_VERS = 2.0
CREATION_DATE  = 
ORIGINATOR     = 

OBJECT_NAME    = STARLINK-36784
OBJECT_ID      = 2026-034AD
CENTER_NAME    = EARTH
REF_FRAME      = TEME
TIME_SYSTEM    = UTC
MEAN_ELEMENT_THEORY = SGP/SGP4

EPOCH          = 2026-03-02T22:00:01.999584
MEAN_MOTION    = 15.80838907
ECCENTRICITY   = .0001366
INCLINATION    = 53.1532
RA_OF_ASC_NODE = 245.0614
ARG_OF_PERICENTER = 59.9582
MEAN_ANOMALY   = 128.1775

EPHEMERIS_TYPE = 0
CLASSIFICATION_TYPE = U
NORAD_CAT_ID   = 67877
ELEMENT_SET_NO = 999
REV_AT_EPOCH   = 277
BSTAR          = .36725994E-3
MEAN_MOTION_DOT = .72282E-3
MEAN_MOTION_DDOT = 0

CCSDS_OMM_VERS = 2.0
CREATION_DATE  = 
ORIGINATOR     = 

OBJECT_NAME    = STARLINK-36689
OBJECT_ID      = 2026-034AE
CENTER_NAME    = EARTH
REF_FRAME      = TEME
TIME_SYSTEM    = UTC
MEAN_ELEMENT_THEORY = SGP/SGP4

EPOCH          = 2026-03-02T22:00:01.999584
MEAN_MOTION    = 15.80805932
ECCENTRICITY   = .00013321
INCLINATION    = 53.1532
RA_OF_ASC_NODE = 245.0529
ARG_OF_PERICENTER = 79.6817
MEAN_ANOMALY   = 112.7450

EPHEMERIS_TYPE = 0
CLASSIFICATION_TYPE = U
NORAD_CAT_ID   = 67878
ELEMENT_SET_NO = 999
REV_AT_EPOCH   = 277
BSTAR          = .65129102E-3
MEAN_MOTION_DOT = .129387E-2
MEAN_MOTION_DDOT = 0

CCSDS_OMM_VERS = 2.0
CREATION_DATE  = 
ORIGINATOR     = 

OBJECT_NAME    = STARLINK-36818
OBJECT_ID      = 2026-035A
CENTER_NAME    = EARTH
REF_FRAME      = TEME
TIME_SYSTEM    = UTC
MEAN_ELEMENT_THEORY = SGP/SGP4

EPOCH          = 2026-03-02T22:00:01.999584
MEAN_MOTION    = 16.01458116
ECCENTRICITY   = .00012225
INCLINATION    = 97.2793
RA_OF_ASC_NODE = 353.7074
ARG_OF_PERICENTER = 107.8353
MEAN_ANOMALY   = 93.8782

EPHEMERIS_TYPE = 0
CLASSIFICATION_TYPE = U
NORAD_CAT_ID   = 67879
ELEMENT_SET_NO = 999
REV_AT_EPOCH   = 266
BSTAR          = -.17204853E-2
MEAN_MOTION_DOT = -.944917E-2
MEAN_MOTION_DDOT = .30002921E-3

CCSDS_OMM_VERS = 2.0
CREATION_DATE  = 
ORIGINATOR     = 

OBJECT_NAME    = STARLINK-36821
OBJECT_ID      = 2026-035B
CENTER_NAME    = EARTH
REF_FRAME      = TEME
TIME_SYSTEM    = UTC
MEAN_ELEMENT_THEORY = SGP/SGP4

EPOCH          = 2026-03-02T22:00:01.999584
MEAN_MOTION    = 16.01643432
ECCENTRICITY   = .00010809
INCLINATION    = 97.2790
RA_OF_ASC_NODE = 353.7098
ARG_OF_PERICENTER = 99.7508
MEAN_ANOMALY   = 107.3295

EPHEMERIS_TYPE = 0
CLASSIFICATION_TYPE = U
NORAD_CAT_ID   = 67880
ELEMENT_SET_NO = 999
REV_AT_EPOCH   = 266
BSTAR          = -.17063035E-2
MEAN_MOTION_DOT = -.947161E-2
MEAN_MOTION_DDOT = .30199827E-3

CCSDS_OMM_VERS = 2.0
CREATION_DATE  = 
ORIGINATOR     = 

OBJECT_NAME    = STARLINK-36808
OBJECT_ID      = 2026-035C
CENTER_NAME    = EARTH
REF_FRAME      = TEME
TIME_SYSTEM    = UTC
MEAN_ELEMENT_THEORY = SGP/SGP4

EPOCH          = 2026-03-02T22:00:01.999584
MEAN_MOTION    = 16.01531058
ECCENTRICITY   = .00011538
INCLINATION    = 97.2790
RA_OF_ASC_NODE = 353.7082
ARG_OF_PERICENTER = 104.0255
MEAN_ANOMALY   = 99.6900

EPHEMERIS_TYPE = 0
CLASSIFICATION_TYPE = U
NORAD_CAT_ID   = 67881
ELEMENT_SET_NO = 999
REV_AT_EPOCH   = 266
BSTAR          = -.1715502E-2
MEAN_MOTION_DOT = -.94613E-2
MEAN_MOTION_DDOT = .3009976E-3

CCSDS_OMM_VERS = 2.0
CREATION_DATE  = 
ORIGINATOR     = 

OBJECT_NAME    = STARLINK-36817
OBJECT_ID      = 2026-035D
CENTER_NAME    = EARTH
REF_FRAME      = TEME
TIME_SYSTEM    = UTC
MEAN_ELEMENT_THEORY = SGP/SGP4

EPOCH          = 2026-03-02T22:00:01.999584
MEAN_MOTION    = 16.01867459
ECCENTRICITY   = .00011622
INCLINATION    = 97.2783
RA_OF_ASC_NODE = 353.7122
ARG_OF_PERICENTER = 98.4604
MEAN_ANOMALY   = 115.1855

EPHEMERIS_TYPE = 0
CLASSIFICATION_TYPE = U
NORAD_CAT_ID   = 67882
ELEMENT_SET_NO = 999
REV_AT_EPOCH   = 266
BSTAR          = -.16919208E-2
MEAN_MOTION_DOT = -.951399E-2
MEAN_MOTION_DDOT = .30529754E-3

CCSDS_OMM_VERS = 2.0
CREATION_DATE  = 
ORIGINATOR     = 

OBJECT_NAME    = STARLINK-36856
OBJECT_ID      = 2026-035E
CENTER_NAME    = EARTH
REF_FRAME      = TEME
TIME_SYSTEM    = UTC
MEAN_ELEMENT_THEORY = SGP/SGP4

EPOCH          = 2026-03-02T22:00:01.999584
MEAN_MOTION    = 16.01763220
ECCENTRICITY   = .00011487
INCLINATION    = 97.2786
RA_OF_ASC_NODE = 353.7111
ARG_OF_PERICENTER = 103.9835
MEAN_ANOMALY   = 106.6134

EPHEMERIS_TYPE = 0
CLASSIFICATION_TYPE = U
NORAD_CAT_ID   = 67883
ELEMENT_SET_NO = 999
REV_AT_EPOCH   = 266
BSTAR          = -.17019346E-2
MEAN_MOTION_DOT = -.951274E-2
MEAN_MOTION_DDOT = .30485412E-3

CCSDS_OMM_VERS = 2.0
CREATION_DATE  = 
ORIGINATOR     = 

OBJECT_NAME    = STARLINK-36842
OBJECT_ID      = 2026-035F
CENTER_NAME    = EARTH
REF_FRAME      = TEME
TIME_SYSTEM    = UTC
MEAN_ELEMENT_THEORY = SGP/SGP4

EPOCH          = 2026-03-02T22:00:01.999584
MEAN_MOTION    = 16.01967670
ECCENTRICITY   = .00010245
INCLINATION    = 97.2783
RA_OF_ASC_NODE = 353.7136
ARG_OF_PERICENTER = 93.0263
MEAN_ANOMALY   = 123.4441

EPHEMERIS_TYPE = 0
CLASSIFICATION_TYPE = U
NORAD_CAT_ID   = 67884
ELEMENT_SET_NO = 999
REV_AT_EPOCH   = 266
BSTAR          = -.16746054E-2
MEAN_MOTION_DOT = -.947163E-2
MEAN_MOTION_DDOT = .3031353E-3

CCSDS_OMM_VERS = 2.0
CREATION_DATE  = 
ORIGINATOR     = 

OBJECT_NAME    = STARLINK-36826
OBJECT_ID      = 2026-035G
CENTER_NAME    = EARTH
REF_FRAME      = TEME
TIME_SYSTEM    = UTC
MEAN_ELEMENT_THEORY = SGP/SGP4

EPOCH          = 2026-03-02T22:00:01.999584
MEAN_MOTION    = 16.02050699
ECCENTRICITY   = .00010561
INCLINATION    = 97.2782
RA_OF_ASC_NODE = 353.7146
ARG_OF_PERICENTER = 94.2457
MEAN_ANOMALY   = 124.4418

EPHEMERIS_TYPE = 0
CLASSIFICATION_TYPE = U
NORAD_CAT_ID   = 67885
ELEMENT_SET_NO = 999
REV_AT_EPOCH   = 266
BSTAR          = -.16684529E-2
MEAN_MOTION_DOT = -.948235E-2
MEAN_MOTION_DDOT = .30406389E-3

